{"markers":[{"company":"Richner B\u00c3\u00a4der und Pl\u00c3\u00a4ttli","street":"Industrie Neubuchs","zip":"5001","place":"Aarau","media":"http:\/\/www.framo.ch\/uploads\/tx_userncdealer\/L-Richner.gif","link":"http:\/\/www.richner.ch\/Ausstellungen.88+M5991c768ac5.0.html","canton":"104","lat":"47.3934000","lng":"8.0431200"},{"company":"Richner B\u00c3\u00a4der und Pl\u00c3\u00a4ttli","street":"Gellertstrasse 212","zip":"4052","place":"Basel","media":"http:\/\/www.framo.ch\/uploads\/tx_userncdealer\/L-Richner_01.gif","link":"http:\/\/www.richner.ch\/Ausstellungen.88+M5a092928d39.0.html","canton":"109","lat":"47.5447580","lng":"7.6169070"},{"company":"Kappeler AG","street":"Talweg 7","zip":"3013","place":"Bern","media":"http:\/\/www.framo.ch\/uploads\/tx_userncdealer\/kappeler.gif","link":"http:\/\/www.kappeler-baeder.ch\/","canton":"107","lat":"46.9599610","lng":"7.4448600"},{"company":"Richner B\u00c3\u00a4der und Pl\u00c3\u00a4ttli","street":"Stauffacherstrasse 130a","zip":"3014","place":"Bern","media":"http:\/\/www.framo.ch\/uploads\/tx_userncdealer\/L-Richner_02.gif","link":"http:\/\/www.richner.ch\/Ausstellungen.88+M5c4a344ad63.0.html","canton":"107","lat":"46.9695290","lng":"7.4645120"},{"company":"Richner B\u00c3\u00a4der und Pl\u00c3\u00a4ttli","street":"Pulverweg 9","zip":"3400","place":"Burgdorf","media":"http:\/\/www.framo.ch\/uploads\/tx_userncdealer\/L-Richner_03.gif","link":"http:\/\/www.richner.ch\/Ausstellungen.88+M51a4c87d976.0.html","canton":"107","lat":"47.0668220","lng":"7.6101380"},{"company":"Richner B\u00c3\u00a4der und Pl\u00c3\u00a4ttli","street":"Kalchb\u00c3\u00bchlstrasse 40","zip":"7000","place":"Chur","media":"http:\/\/www.framo.ch\/uploads\/tx_userncdealer\/L-Richner_04.gif","link":"http:\/\/www.richner.ch\/Ausstellungen.88+M59199e15eec.0.html","canton":"113","lat":"46.8467040","lng":"9.5069460"},{"company":"Bringhen","street":"Warpel","zip":"3186","place":"D\u00c3\u00bcdingen","media":"http:\/\/www.framo.ch\/uploads\/tx_userncdealer\/Icon_santag.gif","link":"http:\/\/www.bringhen.ch\/06-bringhen-duedingen\/d\/d_index-duedingen.html","canton":"110","lat":"46.8618150","lng":"7.2085540"},{"company":"Dubat SA","street":"Chemin de la ch\u00c3\u00a8vre 1","zip":"1400","place":"Yverdon-les-bains","media":"http:\/\/www.framo.ch\/uploads\/tx_userncdealer\/Dubat.png","link":"http:\/\/www.dubat.ch","canton":"126","lat":"46.7580630","lng":"6.6428570"},{"company":"Challande & Fils SA","street":"Rte de Duillier 18","zip":"1260","place":"Nyon","media":"http:\/\/www.framo.ch\/uploads\/tx_userncdealer\/Challaend.png","link":"http:\/\/www.challande.ch","canton":"126","lat":"46.3945200","lng":"6.2360740"},{"company":"Richner B\u00c3\u00a4der und Pl\u00c3\u00a4ttli","street":"Industriestrasse 11","zip":"3210","place":"Kerzers","media":"http:\/\/www.framo.ch\/uploads\/tx_userncdealer\/L-Richner_05.gif","link":"http:\/\/www.richner.ch\/Ausstellungen.88+M5d3222c8b7e.0.html","canton":"110","lat":"46.9684390","lng":"7.1849170"},{"company":"Richner B\u00c3\u00a4der und Pl\u00c3\u00a4ttli","street":"Arsenalstrasse 21","zip":"6010","place":"Kriens","media":"http:\/\/www.framo.ch\/uploads\/tx_userncdealer\/L-Richner_06.gif","link":"http:\/\/www.richner.ch\/Ausstellungen.353+M508360aba2b.0.html","canton":"115","lat":"47.0339320","lng":"8.2959600"},{"company":"Richner B\u00c3\u00a4der und Pl\u00c3\u00a4ttli","street":"Eichwiesstrasse 2","zip":"8640","place":"Rapperswil-Jona","media":"http:\/\/www.framo.ch\/uploads\/tx_userncdealer\/L-Richner_07.gif","link":"http:\/\/www.richner.ch\/Ausstellungen.88+M5c7f7a37721.0.html","canton":"119","lat":"47.2252540","lng":"8.8331070"},{"company":"Insta Industrie & Handels AG","street":"Christoph Merian-Ring 23","zip":"4153","place":"Reinach \/ BL","media":"http:\/\/www.framo.ch\/uploads\/tx_userncdealer\/insta_01.png","link":"http:\/\/www.insta.ch\/de\/standorte\/","canton":"108","lat":"47.4882460","lng":"7.6009680"},{"company":"Richner B\u00c3\u00a4der und Pl\u00c3\u00a4ttli","street":"Schweizersbildstrasse 41","zip":"8200","place":"Schaffhausen","media":"http:\/\/www.framo.ch\/uploads\/tx_userncdealer\/L-Richner_08.gif","link":"http:\/\/www.richner.ch\/Ausstellungen.88+M576cacbd070.0.html","canton":"120","lat":"47.7216060","lng":"8.6439990"},{"company":"Richner B\u00c3\u00a4der und Pl\u00c3\u00a4ttli","street":"Muttenstrasse 13","zip":"4500","place":"Solothurn","media":"http:\/\/www.framo.ch\/uploads\/tx_userncdealer\/L-Richner_09.gif","link":"http:\/\/www.richner.ch\/Ausstellungen.88+M53084b0736c.0.html","canton":"121","lat":"47.2041635","lng":"7.5299116"},{"company":"Richner B\u00c3\u00a4der und Pl\u00c3\u00a4ttli","street":"Bogenstrasse 14","zip":"9001","place":"St-Gallen","media":"http:\/\/www.framo.ch\/uploads\/tx_userncdealer\/L-Richner_10.gif","link":"http:\/\/www.richner.ch\/Ausstellungen.353+M53210ac891a.0.html","canton":"119","lat":"47.4263200","lng":"9.3780600"},{"company":"SAB \/ Burgener GmbH","street":"Alustrasse","zip":"3940","place":"Steg","media":"http:\/\/www.framo.ch\/uploads\/tx_userncdealer\/SAB.png","link":"http:\/\/www.sab-steg.ch\/","canton":"127","lat":"46.3150900","lng":"7.7484400"},{"company":"Badewell AG","street":"Wassergrabe 3","zip":"6210","place":"Sursee","media":"http:\/\/www.framo.ch\/uploads\/tx_userncdealer\/Badewell.png","link":"http:\/\/www.badewell.ch","canton":"115","lat":"47.1843610","lng":"8.1090750"},{"company":"Richner B\u00c3\u00a4der und Pl\u00c3\u00a4ttli","street":"Schlossmattstrasse 17","zip":"3600","place":"Thun","media":"http:\/\/www.framo.ch\/uploads\/tx_userncdealer\/L-Richner_11.gif","link":"http:\/\/www.richner.ch\/Ausstellungen.88+M5f01a3ff2ba.0.html","canton":"107","lat":"46.7553800","lng":"7.6268210"},{"company":"Santag","street":"Mossweg 5","zip":"3604","place":"Thun","media":"http:\/\/www.framo.ch\/uploads\/tx_userncdealer\/Icon_santag_02.gif","link":"","canton":"107","lat":"46.7253520","lng":"7.6164220"},{"company":"G\u00c3\u00a9taz Romang AG","street":"Lonzastrasse 2","zip":"3930","place":"Visp","media":"http:\/\/www.framo.ch\/uploads\/tx_userncdealer\/L_Getaz_22-1.gif","link":"http:\/\/www.getaz-romang.ch\/d\/location\/city.php?ville=35","canton":"127","lat":"46.2944320","lng":"7.8832520"},{"company":"Richner B\u00c3\u00a4der und Pl\u00c3\u00a4ttli","street":"Industriestrasse 18","zip":"8604","place":"Volketswil","media":"http:\/\/www.framo.ch\/uploads\/tx_userncdealer\/L-Richner_12.gif","link":"http:\/\/www.richner.ch\/Ausstellungen.353+M5a072a188ed.0.html","canton":"129","lat":"47.3804650","lng":"8.6725150"},{"company":"Creasan","street":"Chriesbaumstrasse 6","zip":"8604","place":"Volketswil","media":"http:\/\/www.framo.ch\/uploads\/tx_userncdealer\/Icon_santag_03.gif","link":"http:\/\/www.bringhen.ch\/10-creasan-volketswil\/d\/d_index-volketswil.html","canton":"129","lat":"47.3826120","lng":"8.6810940"},{"company":"Richner B\u00c3\u00a4der und Pl\u00c3\u00a4ttli","street":"Technoramastrasse 15","zip":"8404","place":"Winterthur","media":"http:\/\/www.framo.ch\/uploads\/tx_userncdealer\/L-Richner_13.gif","link":"http:\/\/www.richner.ch\/Ausstellungen.88+M583435fc7bc.0.html","canton":"129","lat":"47.5114110","lng":"8.7633120"},{"company":"Richner B\u00c3\u00a4der und Pl\u00c3\u00a4ttli","street":"W\u00c3\u00bcrzgrabenstrasse 6","zip":"8048","place":"Z\u00c3\u00bcrich","media":"http:\/\/www.framo.ch\/uploads\/tx_userncdealer\/L-Richner_14.gif","link":"http:\/\/www.richner.ch\/Ausstellungen.88+M571c9c9eff8.0.html","canton":"129","lat":"47.3930554","lng":"8.4941566"},{"company":"Saneo by Arte Matto","street":"Rue de Plaisance 7","zip":"1227","place":"Carouge","media":"http:\/\/www.framo.ch\/uploads\/tx_userncdealer\/Icon_santag_04.gif","link":"","canton":"111","lat":"46.1831360","lng":"6.1398670"},{"company":"Glasson Mat\u00c3\u00a9riaux SA","street":"Route de Riaz 29","zip":"1630","place":"Bulle","media":"http:\/\/www.framo.ch\/uploads\/tx_userncdealer\/L_Getaz_22-1_01.gif","link":"http:\/\/www.glasson.ch\/f\/location\/city.php?ville=2","canton":"126","lat":"46.6230160","lng":"7.0582410"},{"company":"G\u00c3\u00a9taz Romang SA","street":"Chemin des Malpierres 1","zip":"2088","place":"Cressier","media":"http:\/\/www.framo.ch\/uploads\/tx_userncdealer\/L_Getaz_22-1_02.gif","link":"http:\/\/www.getaz-romang.ch\/f\/location\/city.php?ville=9","canton":"116","lat":"47.0442030","lng":"7.0290040"},{"company":"G\u00c3\u00a9taz Romang SA","street":"Avenue de la Praille 45","zip":"1227","place":"Carouge","media":"http:\/\/www.framo.ch\/uploads\/tx_userncdealer\/L_Getaz_22-1_03.gif","link":"http:\/\/www.getaz-romang.ch\/f\/location\/city.php?ville=5","canton":"111","lat":"46.1864020","lng":"6.1318030"},{"company":"Saneo","street":"Route Andr\u00c3\u00a9 Piller 45","zip":"1720","place":"Corminboeuf","media":"http:\/\/www.framo.ch\/uploads\/tx_userncdealer\/Icon_santag_06.gif","link":"http:\/\/www.bringhen.ch\/09-saneo-fribourg\/f\/f_index-fribourg.html","canton":"110","lat":"46.8116890","lng":"7.1146450"},{"company":"G\u00c3\u00a9taz Romang SA","street":"La Tuili\u00c3\u00a8re 10","zip":"1163","place":"Etoy","media":"http:\/\/www.framo.ch\/uploads\/tx_userncdealer\/L_Getaz_22-1_04.gif","link":"http:\/\/www.getaz-romang.ch\/f\/location\/city.php?ville=48","canton":"126","lat":"46.4758530","lng":"6.4241170"},{"company":"Insta Industrie & Handels AG","street":"Rue du Vieux-Billard 24","zip":"1205","place":"Gen\u00c3\u00a8ve","media":"http:\/\/www.framo.ch\/uploads\/tx_userncdealer\/insta.png","link":"http:\/\/www.insta.ch\/de\/standorte\/","canton":"111","lat":"46.2009790","lng":"6.1368540"},{"company":"Glasson Mat\u00c3\u00a9riaux SA","street":"Route Andr\u00c3\u00a9-Piller 1","zip":"1762","place":"Givisiez","media":"http:\/\/www.framo.ch\/uploads\/tx_userncdealer\/L_Getaz_22-1_05.gif","link":"http:\/\/www.glasson.ch\/f\/location\/city.php?ville=15","canton":"110","lat":"46.8145500","lng":"7.1278220"},{"company":"Sanval SA","street":"Rue du Levant 160","zip":"1920","place":"Martigny","media":"http:\/\/www.framo.ch\/uploads\/tx_userncdealer\/Icon_santag_07.gif","link":"http:\/\/www.bringhen.ch\/04-sanval-martigny\/f\/f_index-martigny.html","canton":"127","lat":"46.1028520","lng":"7.0911680"},{"company":"Lietti Ferd. SA","street":"Avenue du Simplon 60","zip":"1870","place":"Monthey","media":"http:\/\/www.framo.ch\/uploads\/tx_userncdealer\/Icon_Lietti-1.gif","link":"http:\/\/www.lietti.ch\/","canton":"127","lat":"46.2470140","lng":"6.9582220"},{"company":"Saneo","street":"Route de Denges 6","zip":"1027","place":"Lonay","media":"http:\/\/www.framo.ch\/uploads\/tx_userncdealer\/Icon_santag_08.gif","link":"http:\/\/www.bringhen.ch\/05-saneo-morges\/f\/f_index-morges.html","canton":"126","lat":"46.5245920","lng":"6.5220500"},{"company":"Rapin Mat\u00c3\u00a9riaux SA","street":"Grosse-Pierre 16","zip":"1530","place":"Payerne","media":"http:\/\/www.framo.ch\/uploads\/tx_userncdealer\/L_Getaz_22-1_06.gif","link":"http:\/\/www.rapin.ch\/f\/location\/city.php?ville=28","canton":"126","lat":"46.8255570","lng":"6.9457250"},{"company":"Bringhen","street":"Rue de la Potence 5","zip":"3960","place":"Sierre","media":"http:\/\/www.framo.ch\/uploads\/tx_userncdealer\/Icon_santag_09.gif","link":"http:\/\/www.bringhen.ch\/02-bringhen-sierre\/f\/f_index-sierre.html","canton":"127","lat":"46.2819190","lng":"7.5147650"},{"company":"G\u00c3\u00a9taz Romang SA","street":"Rue de la Dixence 33","zip":"1950","place":"Sion","media":"http:\/\/www.framo.ch\/uploads\/tx_userncdealer\/L_Getaz_22-1_07.gif","link":"http:\/\/www.getaz-romang.ch\/f\/location\/city.php?ville=32","canton":"127","lat":"46.2292680","lng":"7.3651120"},{"company":"Lietti Ferd. SA","street":"Rue de la Dixence 48","zip":"1920","place":"Sion","media":"http:\/\/www.framo.ch\/uploads\/tx_userncdealer\/Icon_Lietti-1_01.gif","link":"http:\/\/www.lietti.ch\/","canton":"127","lat":"46.2276800","lng":"7.3710900"},{"company":"Sanibat","street":"Grand-Champsec 12","zip":"1950","place":"Sion","media":"http:\/\/www.framo.ch\/uploads\/tx_userncdealer\/Icon_santag_10.gif","link":"http:\/\/www.bringhen.ch\/03-sanibat-sion\/f\/f_index-sion.html","canton":"127","lat":"46.2270210","lng":"7.3533350"},{"company":"G\u00c3\u00a9taz Romang SA","street":"Route du Pr\u00c3\u00a9 au Bruit 4","zip":"1844","place":"Villeneuve","media":"http:\/\/www.framo.ch\/uploads\/tx_userncdealer\/L_Getaz_22-1_08.gif","link":"http:\/\/www.getaz-romang.ch\/f\/location\/city.php?ville=46","canton":"126","lat":"46.3946947","lng":"6.9310212"},{"company":"Reco SA","street":"Viale Portone 29","zip":"6500","place":"Bellinzona","media":"http:\/\/www.framo.ch\/uploads\/tx_userncdealer\/Icon_reco-1.gif","link":"http:\/\/home.reguscireco.ch\/","canton":"124","lat":"46.1933600","lng":"9.0185390"},{"company":"Reco SA","street":"Via Losanna 8","zip":"6710","place":"Biasca","media":"http:\/\/www.framo.ch\/uploads\/tx_userncdealer\/Icon_reco-1_01.gif","link":"http:\/\/home.reguscireco.ch\/","canton":"124","lat":"46.3564110","lng":"8.9701330"},{"company":"Reco SA","street":"Via San Gottardo 14","zip":"6877","place":"Coldrerio","media":"http:\/\/www.framo.ch\/uploads\/tx_userncdealer\/Icon_reco-1_02.gif","link":"http:\/\/home.reguscireco.ch\/","canton":"124","lat":"45.8560080","lng":"8.9926290"},{"company":"Reco SA","street":"Via Saleggi 38","zip":"6600","place":"Locarno","media":"http:\/\/www.framo.ch\/uploads\/tx_userncdealer\/Icon_reco-1_03.gif","link":"http:\/\/home.reguscireco.ch\/","canton":"124","lat":"46.1617300","lng":"8.7946690"},{"company":"Reco SA","street":"Via Catonale 34a","zip":"6928","place":"Manno","media":"http:\/\/www.framo.ch\/uploads\/tx_userncdealer\/Icon_reco-1_04.gif","link":"http:\/\/home.reguscireco.ch\/","canton":"124","lat":"46.0337110","lng":"8.9239480"},{"company":"Sanitas Troesch AG","street":"M\u00c3\u00bcnchensteinerstr. 127","zip":"4002","place":"Basel","media":"http:\/\/www.framo.ch\/uploads\/tx_userncdealer\/sanitas.gif","link":"http:\/\/www.sanitastroesch.ch\/basel","canton":"109","lat":"47.5370080","lng":"7.6090320"},{"company":"Sanitas Troesch AG","street":"Dufourstrasse 38","zip":"2500","place":"Biel","media":"http:\/\/www.framo.ch\/uploads\/tx_userncdealer\/sanitas_01.gif","link":"http:\/\/www.sanitastroesch.ch\/biel","canton":"107","lat":"47.1408920","lng":"7.2503660"},{"company":"Sanitas Troesch SA","street":"Route des Jeunes 63-65","zip":"1227","place":"Carouge","media":"http:\/\/www.framo.ch\/uploads\/tx_userncdealer\/sanitas_02.gif","link":"http:\/\/www.sanitastroesch.ch\/carouge","canton":"111","lat":"46.1793320","lng":"6.1297960"},{"company":"Sanitas Troesch AG","street":"Industriestrasse 27","zip":"7000","place":"Chur","media":"http:\/\/www.framo.ch\/uploads\/tx_userncdealer\/sanitas_03.gif","link":"http:\/\/www.sanitastroesch.ch\/chur","canton":"113","lat":"46.8589570","lng":"9.5105910"},{"company":"Sanitas Troesch SA","street":"Via Cantonale 36","zip":"6594","place":"Contone","media":"http:\/\/www.framo.ch\/uploads\/tx_userncdealer\/sanitas_17.gif","link":"http:\/\/www.sanitastroesch.ch\/contone","canton":"124","lat":"46.1509730","lng":"8.9332020"},{"company":"Sanitas Troesch SA","street":"Route de Boudry 13","zip":"2016","place":"Cortaillod","media":"http:\/\/www.framo.ch\/uploads\/tx_userncdealer\/sanitas_16.gif","link":"http:\/\/www.sanitastroesch.ch\/cortaillod","canton":"116","lat":"46.9446780","lng":"6.8440790"},{"company":"Sanitas Troesch SA","street":"Chemin Longemartaz 6","zip":"1023","place":"Crissier","media":"http:\/\/www.framo.ch\/uploads\/tx_userncdealer\/sanitas_15.gif","link":"http:\/\/www.sanitastroesch.ch\/crissier","canton":"126","lat":"46.5463950","lng":"6.5826620"},{"company":"Sanitas Troesch SA","street":"Route de D\u00c3\u00a9lemont 89","zip":"2802","place":"Develier","media":"http:\/\/www.framo.ch\/uploads\/tx_userncdealer\/sanitas_14.gif","link":"http:\/\/www.sanitastroesch.ch\/develier","canton":"114","lat":"47.3614060","lng":"7.3103690"},{"company":"Sanitas Troesch AG","street":"S\u00c3\u00a4gestrasse 79","zip":"3098","place":"K\u00c3\u00b6niz","media":"http:\/\/www.framo.ch\/uploads\/tx_userncdealer\/sanitas_13.gif","link":"http:\/\/www.sanitastroesch.ch\/koeniz","canton":"107","lat":"46.9236260","lng":"7.4133460"},{"company":"Sanitas Troesch AG","street":"Grabenhofstrasse 2","zip":"6010","place":"Kriens","media":"http:\/\/www.framo.ch\/uploads\/tx_userncdealer\/sanitas_12.gif","link":"http:\/\/www.sanitastroesch.ch\/kriens","canton":"115","lat":"47.0246080","lng":"8.2966660"},{"company":"Sanitas Troesch SA","street":"Corso Elvezia 37","zip":"6904","place":"Lugano","media":"http:\/\/www.framo.ch\/uploads\/tx_userncdealer\/sanitas_10.gif","link":"http:\/\/www.sanitastroesch.ch\/lugano","canton":"124","lat":"46.0108070","lng":"8.9561750"},{"company":"Sanitas Troesch AG","street":"R\u00c3\u00b6ssliweg 29a","zip":"4852","place":"Rothrist","media":"http:\/\/www.framo.ch\/uploads\/tx_userncdealer\/sanitas_11.gif","link":"http:\/\/www.sanitastroesch.ch\/rothrist","canton":"104","lat":"47.3459850","lng":"7.9069640"},{"company":"Sanitas Troesch SA","street":"Rue du Man\u00c3\u00a8ge 1","zip":"3960","place":"Sierre","media":"http:\/\/www.framo.ch\/uploads\/tx_userncdealer\/sanitas_09.gif","link":"http:\/\/www.sanitastroesch.ch\/sierre","canton":"127","lat":"46.2890590","lng":"7.5505760"},{"company":"Sanitas Troesch AG","street":"Simonstrasse 5","zip":"9016","place":"St.Gallen","media":"http:\/\/www.framo.ch\/uploads\/tx_userncdealer\/sanitas_07.gif","link":"http:\/\/www.sanitastroesch.ch\/stgallen","canton":"119","lat":"47.4381610","lng":"9.4149580"},{"company":"Sanitas Troesch AG","street":"C.F.L. Lohnerstrasse 28","zip":"3601","place":"Thun","media":"http:\/\/www.framo.ch\/uploads\/tx_userncdealer\/sanitas_08.gif","link":"http:\/\/www.sanitastroesch.ch\/thun","canton":"107","lat":"46.7315500","lng":"7.6175800"},{"company":"Sanitas Troesch AG","street":"Brunngasse 6","zip":"8400","place":"Winterthur","media":"http:\/\/www.framo.ch\/uploads\/tx_userncdealer\/sanitas_06.gif","link":"http:\/\/www.sanitastroesch.ch\/winterthur","canton":"129","lat":"47.5050640","lng":"8.7255190"},{"company":"Sanitas Troesch AG","street":"Hardturmstrasse 101","zip":"8031","place":"Z\u00c3\u00bcrich","media":"http:\/\/www.framo.ch\/uploads\/tx_userncdealer\/sanitas_05.gif","link":"http:\/\/www.sanitastroesch.ch\/zuerich","canton":"129","lat":"47.3924520","lng":"8.5160320"},{"company":"Sanitas Troesch SA","street":"Feldlistrasse 9","zip":"8645","place":"Jona","media":"http:\/\/www.framo.ch\/uploads\/tx_userncdealer\/sanitas_04.gif","link":"http:\/\/www.sanitastroesch.ch\/jona","canton":"119","lat":"47.2292870","lng":"8.8472580"},{"company":"Zen-Ruffinen & Co","street":"Kiesweg 10","zip":"3904","place":"Naters","media":"http:\/\/www.framo.ch\/uploads\/tx_userncdealer\/Zen_Ruffinen.png","link":"http:\/\/www.zrbau.ch","canton":"127","lat":"46.3191620","lng":"7.9802200"},{"company":"FCM S\u00c3\u00a0rl","street":"Rue Paul-Charmillot 72","zip":"2610","place":"Saint-Imier","media":"http:\/\/www.framo.ch\/uploads\/tx_userncdealer\/fcm.jpg","link":"http:\/\/www.fcmsarl.ch\/","canton":"114","lat":"47.1560350","lng":"7.0037500"}]}